ONEWEB-0451             
1 51643U 22012X   24115.54705175 -.00000002  00000+0 -39034-4 0  9999
2 51643  87.9197 161.8047 0001899  97.5137 262.6210 13.17649116110468
ONEWEB-0452             
1 51644U 22012Y   24115.54546252  .00000049  00000+0  94220-4 0  9996
2 51644  87.9203 161.8412 0001828  87.4330 272.7011 13.17650973110473
ONEWEB-0455             
1 51645U 22012Z   24115.58907793  .00000831  00000+0  36240-3 0  9998
2 51645  87.5282 133.0838 0017897 154.6574 205.5498 14.22796979114684
ONEWEB-0456             
1 51646U 22012AA  24115.22816253 -.00000277  00000+0 -82995-3 0  9994
2 51646  87.8979 192.0552 0002251 112.0100 248.1267 13.10370229106679
ONEWEB-0457             
1 51647U 22012AB  24115.58673771  .00000630  00000+0  17693-2 0  9993
2 51647  87.8992 192.0013 0002074  88.1492 271.9873 13.10375957106723
ONEWEB-0458             
1 51648U 22012AC  24115.22650097 -.00000127  00000+0 -40041-3 0  9998
2 51648  87.8988 192.0879 0001815  99.3975 260.7357 13.10369873106634
ONEWEB-0461             
1 51649U 22012AD  24115.56759438 -.00003657  00000+0 -94525-2 0  9991
2 51649  87.9199 161.8077 0002303  95.9964 264.1430 13.17666097110693
ONEWEB-0463             
1 51650U 22012AE  24115.55021081  .00000006  00000+0 -18334-4 0  9998
2 51650  87.9203 161.8554 0002088  94.7407 265.3963 13.17649618110470
ONEWEB-0464             
1 51651U 22012AF  24115.22317747  .00001947  00000+0  55384-2 0  9998
2 51651  87.8992 192.0776 0002004 109.9980 250.1364 13.10388242106658
ONEWEB-0468             
1 51652U 22012AG  24115.22981617 -.00000362  00000+0 -10721-2 0  9990
2 51652  87.8990 192.0691 0001996 105.0943 255.0405 13.10370995106632
ONEWEB-0473             
1 51653U 22012AH  24115.29126566  .00000534  00000+0  14940-2 0  9998
2 51653  87.8988 192.0606 0001929 101.6990 258.4354 13.10371036106644
ONEWEB-0474             
1 51654U 22012AJ  24115.58839147  .00000598  00000+0  16755-2 0  9993
2 51654  87.8982 192.0031 0001808 107.1711 252.9615 13.10371655106678
ONEWEB-0475             
1 51655U 22012AK  24115.56129590  .00000070  00000+0  14763-3 0  9999
2 51655  87.9203 161.8324 0001609 102.7346 257.3965 13.17649551110491
ONEWEB-0490             
1 54113U 22138A   24115.49220175  .00000012  00000+0 -32204-5 0  9992
2 54113  87.9102 100.9449 0001864  91.3463 268.7883 13.19727009 73466
ONEWEB-0492             
1 54114U 22138B   24115.51748800  .00000088  00000+0  18830-3 0  9995
2 54114  87.9106 100.9402 0001843  96.2417 263.8926 13.19726623 73476
ONEWEB-0495             
1 54115U 22138C   24115.49537412  .00000087  00000+0  18496-3 0  9995
2 54115  87.9107 100.9560 0001276 109.3599 250.7672 13.19724668 73458
ONEWEB-0497             
1 54116U 22138D   24115.50801055 -.00000149  00000+0 -40498-3 0  9993
2 54116  87.9105 100.9438 0002206  85.6940 274.4445 13.19727074 73445
ONEWEB-0499             
1 54117U 22138E   24115.49062665  .00000039  00000+0  65229-4 0  9994
2 54117  87.9108 100.9462 0001572  73.6490 286.4816 13.19728088 73450
ONEWEB-0500             
1 54118U 22138F   24115.49380084  .00000017  00000+0  92728-5 0  9994
2 54118  87.9104 100.9432 0001961  91.6762 268.4596 13.19725625 73468
ONEWEB-0501             
1 54119U 22138G   24115.52381159  .00000060  00000+0  11718-3 0  9999
2 54119  87.9102 100.9367 0001452  98.4587 261.6710 13.19726220 73442
ONEWEB-0502             
1 54120U 22138H   24115.50959642  .00000134  00000+0  30251-3 0  9992
2 54120  87.9100 100.9291 0001565  89.9578 270.1734 13.19726451 73467
ONEWEB-0503             
1 54121U 22138J   24115.49852527  .00000080  00000+0  16861-3 0  9996
2 54121  87.9101 100.9385 0001958  73.3472 286.7876 13.19724681 73451
ONEWEB-0504             
1 54122U 22138K   24115.48590156 -.00000034  00000+0 -11609-3 0  9999
2 54122  87.9102 100.9460 0001552  81.9917 278.1391 13.19725691 73466
ONEWEB-0505             
1 54123U 22138L   24115.48274268  .00000082  00000+0  17280-3 0  9995
2 54123  87.9102 100.9419 0001200  99.3978 260.7290 13.19725928 73447
ONEWEB-0506             
1 54124U 22138M   24115.45747284  .00000098  00000+0  21228-3 0  9990
2 54124  87.9101 100.9440 0001679  90.9633 269.1692 13.19726364 73439
ONEWEB-0507             
1 54125U 22138N   24115.47800598 -.00000004  00000+0 -43192-4 0  9995
2 54125  87.9110 100.9567 0001732  96.9299 263.2031 13.19726129 73480
ONEWEB-0508             
1 54126U 22138P   24115.47483836 -.00000003  00000+0 -41050-4 0  9998
2 54126  87.9107 100.9521 0001608  98.1683 261.9632 13.19727142 73466
ONEWEB-0509             
1 54127U 22138Q   24115.44958247 -.00000621  00000+0 -15838-2 0  9998
2 54127  87.9098 100.9528 0002273  90.6479 269.4914 13.19711149 73435
ONEWEB-0510             
1 54128U 22138R   24115.42750062  .00000069  00000+0  13750-3 0  9998
2 54128  87.9190  70.3778 0002353  91.7773 268.3630 13.20771208 75826
ONEWEB-0511             
1 54129U 22138S   24115.44641579  .00000039  00000+0  66118-4 0  9997
2 54129  87.9100 100.9507 0001742  73.4845 286.6479 13.19726112 73460
ONEWEB-0512             
1 54130U 22138T   24115.51433339  .00000053  00000+0  99861-4 0  9997
2 54130  87.9110 100.9493 0001435  93.3344 266.7953 13.19725903 74319
ONEWEB-0513             
1 54131U 22138U   24115.48511715 -.00000027  00000+0 -98779-4 0  9999
2 54131  87.9107 100.9507 0001286  85.1115 275.0164 13.19726627 73322
ONEWEB-0514             
1 54132U 22138V   24115.45431002  .00000065  00000+0  13044-3 0  9998
2 54132  87.9103 100.9545 0001941  86.3447 273.7908 13.19725553 73452
ONEWEB-0515             
1 54133U 22138W   24115.41488571  .00000067  00000+0  13274-3 0  9995
2 54133  87.9188  70.3608 0003046  94.3502 265.7980 13.20771017 75849
ONEWEB-0516             
1 54134U 22138X   24115.50485233  .00000115  00000+0  25474-3 0  9997
2 54134  87.9110 100.9517 0001868  90.6557 269.4790 13.19726482 73463
ONEWEB-0517             
1 54135U 22138Y   24115.48431668 -.00000014  00000+0 -67855-4 0  9998
2 54135  87.9103 100.9447 0001845  73.3993 286.7343 13.19724442 73465
ONEWEB-0518             
1 54136U 22138Z   24115.50326760  .00000017  00000+0  10145-4 0  9999
2 54136  87.9110 100.9508 0001858  82.8946 277.2398 13.19727349 73463
ONEWEB-0519             
1 54137U 22138AA  24115.45271852  .00000127  00000+0  28500-3 0  9990
2 54137  87.9101 100.9471 0001502  82.8167 277.3137 13.19727923 73464
ONEWEB-0520             
1 54138U 22138AB  24115.48747772  .00000085  00000+0  18005-3 0  9995
2 54138  87.9103 100.9428 0001480 100.0824 260.0476 13.19726056 73457
ONEWEB-0521             
1 54139U 22138AC  24115.52065163  .00000047  00000+0  85234-4 0  9995
2 54139  87.9100 100.9300 0001992  81.6262 278.5096 13.19725840 73409
ONEWEB-0522             
1 54140U 22138AD  24115.50011375  .00000052  00000+0  97734-4 0  9995
2 54140  87.9100 100.9358 0001873  90.1088 270.0259 13.19726390 73446
ONEWEB-0523             
1 54141U 22138AE  24115.40225533  .00000019  00000+0  14739-4 0  9995
2 54141  87.9190  70.3906 0002893  78.6277 281.5181 13.20771811 75846
ONEWEB-0524             
1 54142U 22138AF  24115.39120481  .00000064  00000+0  12627-3 0  9993
2 54142  87.9189  70.3966 0002901 100.5959 259.5501 13.20772561 75847
ONEWEB-0525             
1 54143U 22138AG  24115.51907038  .00000031  00000+0  45156-4 0  9997
2 54143  87.9104 100.9398 0001619  91.7424 268.3894 13.19725904 73463
ONEWEB-0526             
1 54144U 22138AH  24115.55224097  .00000154  00000+0  35121-3 0  9995
2 54144  87.9102 100.9293 0001890  93.0508 267.0841 13.19725512 73446
ONEWEB-0529             
1 54145U 22138AJ  24115.47957815  .00000103  00000+0  22406-3 0  9994
2 54145  87.9109 100.9549 0001635  96.4591 263.6728 13.19726142 73451
ONEWEB-0531             
1 54146U 22138AK  24115.37699802  .00000045  00000+0  77906-4 0  9994
2 54146  87.9190  70.3898 0003125  85.8010 274.3481 13.20773009 75849
ONEWEB-0535             
1 54147U 22138AL  24115.51275324  .00000010  00000+0 -64284-5 0  9999
2 54147  87.9101 100.9356 0002246  83.5011 276.6377 13.19725836 73479
ONEWEB-0536             
1 54148U 22138AM  24115.36437846  .00000101  00000+0  21536-3 0  9993
2 54148  87.9190  70.4419 0003000  75.9060 284.2407 13.20772726 75830
GSLV R/B                
1 54149U 22138AN  24115.27038352  .00006490  00000+0  65843-3 0  9999
2 54149  87.3867  35.0616 0026714 107.1378 253.2778 14.90463106 81751
ONEWEB-0527             
1 54642U 22166A   24115.33506651 -.00000012  00000+0 -59604-4 0  9992
2 54642  87.9317  40.0119 0001972  84.7775 275.3584 13.21826774 67985
ONEWEB-0528             
1 54643U 22166B   24115.34135678 -.00000367  00000+0 -92001-3 0  9991
2 54643  87.9321  39.9960 0001850  90.3833 269.7513 13.21825265 67999
ONEWEB-0539             
1 54644U 22166C   24115.30193343  .00000081  00000+0  16359-3 0  9994
2 54644  87.9321  40.0049 0001818  71.5932 288.5399 13.21828120 67989
ONEWEB-0540             
1 54645U 22166D   24115.29643102  .00000040  00000+0  65189-4 0  9997
2 54645  87.9317  40.0275 0001711  70.6060 289.5259 13.21826812 67971
ONEWEB-0542             
1 54646U 22166E   24115.31139793 -.00000291  00000+0 -73546-3 0  9992
2 54646  87.9323  40.0029 0002029  65.9127 294.2219 13.21829246 67984
ONEWEB-0545             
1 54647U 22166F   24115.27828919  .00000111  00000+0  23619-3 0  9998
2 54647  87.9310  40.0353 0001633  62.4472 297.6828 13.21827149 67945
ONEWEB-0580             
1 54648U 22166G   24115.32718974  .00002855  00000+0  68793-2 0  9992
2 54648  87.9316  39.9910 0002498  63.2384 296.9005 13.21815519 67991
ONEWEB-0582             
1 54649U 22166H   24115.29407087  .00000820  00000+0  19546-2 0  9991
2 54649  87.9316  40.0357 0001684  64.9878 295.1430 13.21829174 67964
ONEWEB-0583             
1 54650U 22166J   24115.22939291  .00000004  00000+0 -22257-4 0  9993
2 54650  87.9314  40.0501 0001953  90.3075 269.8282 13.21827902 67966
